GLOBALSTAR M068         
1 32266U 07048D   25076.64405817 -.00000045  00000+0  32847-3 0  9999
2 32266  51.9871 221.3096 0000138 329.0083  44.6369 12.62817394805998
GLOBALSTAR M079         
1 37188U 10054A   25076.42571910 -.00000105  00000+0 -50998-5 0  9999
2 37188  52.0042  59.1207 0000656  84.6350  81.2579 12.62271696664863
GLOBALSTAR M074         
1 37189U 10054B   25076.45218068 -.00000107  00000+0 -16521-4 0  9990
2 37189  52.0022  58.3781 0000327 112.5689  52.4504 12.62267239665475
GLOBALSTAR M076         
1 37190U 10054C   25076.39663292 -.00000098  00000+0  32710-4 0  9994
2 37190  52.0033  58.7049 0000636 117.2613  38.4828 12.62278652665184
GLOBALSTAR M077         
1 37191U 10054D   25076.54584752 -.00000087  00000+0  91489-4 0  9991
2 37191  52.0100  15.0862 0000528  76.6066  94.8025 12.62271567665575
GLOBALSTAR M075         
1 37192U 10054E   25076.57175891 -.00000095  00000+0  48182-4 0  9996
2 37192  51.9932 100.4834 0000374 112.1591  58.7434 12.62262536664278
GLOBALSTAR M073         
1 37193U 10054F   25076.57232464 -.00000095  00000+0  46728-4 0  9991
2 37193  52.0089  14.2332 0000625  84.7721  86.5259 12.62264105666266
GLOBALSTAR M083         
1 37739U 11033A   25076.63020669 -.00000069  00000+0  19145-3 0  9997
2 37739  51.9878 322.9147 0000827  71.4934 304.4484 12.62260615635295
GLOBALSTAR M088         
1 37740U 11033B   25076.61799006 -.00000101  00000+0  16866-4 0  9990
2 37740  51.9719 228.5168 0000806  96.8970 344.0339 12.62264251630837
GLOBALSTAR M091         
1 37741U 11033C   25076.61641523 -.00000072  00000+0  17757-3 0  9997
2 37741  51.9988 191.9142 0000765  89.4100 283.5175 12.62265901631624
GLOBALSTAR M085         
1 37742U 11033D   25076.63483191 -.00000061  00000+0  24124-3 0  9999
2 37742  51.9854 142.9783 0000555  96.1415  60.5940 12.62266477632134
GLOBALSTAR M081         
1 37743U 11033E   25076.57895866 -.00000059  00000+0  25135-3 0  9999
2 37743  51.9947 145.8784 0000732 107.8352  35.2168 12.62261723632273
GLOBALSTAR M089         
1 37744U 11033F   25076.46158294 -.00000085  00000+0  10362-3 0  9990
2 37744  51.9915 100.4802 0000487 138.9314  10.4279 12.62267429633107
GLOBALSTAR M084         
1 38040U 11080A   25076.47963786 -.00000069  00000+0  19186-3 0  9998
2 38040  52.0028 327.6665 0000634 105.1364  66.2384 12.62263675611087
GLOBALSTAR M080         
1 38041U 11080B   25076.45351103 -.00000067  00000+0  20575-3 0  9993
2 38041  52.0083 329.3222 0000851 113.9907  57.7003 12.62269999611200
GLOBALSTAR M082         
1 38042U 11080C   25076.59808169 -.00000084  00000+0  11307-3 0  9990
2 38042  52.0070 284.3170 0000864  57.0155 353.1757 12.62264149611937
GLOBALSTAR M092         
1 38043U 11080D   25076.59824940 -.00000083  00000+0  11762-3 0  9990
2 38043  52.0111  14.6832 0000380  77.2381  94.3805 12.62273444610385
GLOBALSTAR M090         
1 38044U 11080E   25076.62281909 -.00000090  00000+0  74907-4 0  9996
2 38044  51.9876 278.1685 0000879  77.0821 324.7981 12.62268246612050
GLOBALSTAR M086         
1 38045U 11080F   25076.56747215 -.00000085  00000+0  10245-3 0  9995
2 38045  51.9889 278.8808 0001677 104.1695 286.4981 12.62268134611999
GLOBALSTAR M097         
1 39072U 13005A   25076.50816394 -.00000087  00000+0  95518-4 0  9993
2 39072  52.0036 193.5126 0000892 101.2018 258.8949 12.62270912559239
GLOBALSTAR M093         
1 39073U 13005B   25076.56052677 -.00000068  00000+0  19807-3 0  9991
2 39073  51.9802 186.8000 0000842 101.7309 258.3652 12.62262635559192
GLOBALSTAR M094         
1 39074U 13005C   25076.40243257 -.00000086  00000+0  10095-3 0  9991
2 39074  51.9943 101.5730 0000628  89.7873 270.3066 12.62269174560781
GLOBALSTAR M096         
1 39075U 13005D   25076.57406259 -.00000061  00000+0  23727-3 0  9992
2 39075  52.0063 149.4955 0000683  92.2971 267.7974 12.62269362559725
GLOBALSTAR M078         
1 39076U 13005E   25076.62623222 -.00000094  00000+0  51778-4 0  9994
2 39076  51.9856 233.9662 0000831  29.7007 330.3906 12.62260273558350
GLOBALSTAR M095         
1 39077U 13005F   25076.49468193 -.00000106  00000+0 -14361-4 0  9996
2 39077  51.9784 231.6118 0001003  67.7247 292.3726 12.62267790558192
GLOBALSTAR M087         
1 52888U 22064A   25076.52534968 -.00000091  00000+0  70387-4 0  9996
2 52888  51.9821  12.9221 0000622  61.8257 298.2672 12.62269397133465
